[{"OBJECT_NAME":"QIANFAN-4","OBJECT_ID":"2024-140D","EPOCH":"2026-03-09T21:04:24.995712","MEAN_MOTION":13.5100067,"ECCENTRICITY":0.00115721,"INCLINATION":88.9712,"RA_OF_ASC_NODE":290.1387,"ARG_OF_PERICENTER":303.5402,"MEAN_ANOMALY":56.4643,"EPHEMERIS_TYPE":0,"CLASSIFICATION_TYPE":"U","NORAD_CAT_ID":60382,"ELEMENT_SET_NO":999,"REV_AT_EPOCH":7920,"BSTAR":9.7437554e-5,"MEAN_MOTION_DOT":7.5e-7,"MEAN_MOTION_DDOT":0},{"OBJECT_NAME":"COSMOS 1275 DEB","OBJECT_ID":"1981-053JG","EPOCH":"2026-03-09T14:14:09.932928","MEAN_MOTION":13.64363473,"ECCENTRICITY":0.0112782,"INCLINATION":82.9158,"RA_OF_ASC_NODE":269.1188,"ARG_OF_PERICENTER":323.0868,"MEAN_ANOMALY":91.787,"EPHEMERIS_TYPE":0,"CLASSIFICATION_TYPE":"U","NORAD_CAT_ID":14440,"ELEMENT_SET_NO":999,"REV_AT_EPOCH":19999,"BSTAR":0.00091457,"MEAN_MOTION_DOT":7.78e-6,"MEAN_MOTION_DDOT":0}]
